[{"OBJECT_NAME":"STARLINK-2542","OBJECT_ID":"2021-036S","EPOCH":"2026-03-09T23:25:40.269792","MEAN_MOTION":15.30185509,"ECCENTRICITY":0.00015112,"INCLINATION":53.1596,"RA_OF_ASC_NODE":73.9422,"ARG_OF_PERICENTER":92.3546,"MEAN_ANOMALY":267.7628,"EPHEMERIS_TYPE":0,"CLASSIFICATION_TYPE":"U","NORAD_CAT_ID":48292,"ELEMENT_SET_NO":999,"REV_AT_EPOCH":26845,"BSTAR":5.147429e-6,"MEAN_MOTION_DOT":-2.07e-6,"MEAN_MOTION_DDOT":0},{"OBJECT_NAME":"THORAD AGENA D DEB","OBJECT_ID":"1969-082CP","EPOCH":"2026-03-09T22:51:31.947840","MEAN_MOTION":15.31252047,"ECCENTRICITY":0.00108961,"INCLINATION":69.8927,"RA_OF_ASC_NODE":265.8646,"ARG_OF_PERICENTER":335.0972,"MEAN_ANOMALY":24.9676,"EPHEMERIS_TYPE":0,"CLASSIFICATION_TYPE":"U","NORAD_CAT_ID":4133,"ELEMENT_SET_NO":999,"REV_AT_EPOCH":97550,"BSTAR":0.0018489552,"MEAN_MOTION_DOT":0.00056347,"MEAN_MOTION_DDOT":0}]
